"NAME","ADDRESS","POSTCODE","LONGITUDE","LATITUDE"
"Reverend Robert Bradford Playground","N/A","N/A",-5.930008197471286,54.59064121043253
"Brown's Square Playground","Millfield","BT13 2BW",-5.938521795777536,54.601345236950394
"Stewart Street Playground","N/A","BT7 2BT",-5.919161038970583,54.592855498755995
"Bridge End Playground","N/A","BT5 4AJ",-5.917147367520517,54.599263096294074
"McClure Street Playground","N/A","BT7 1FX",-5.927321911648297,54.58736071866468
"Dover Street Playground","Beverley Street Shankill Road","BT13 2HQ",-5.942829007119869,54.601876904953926
"Carrick Hill Playground","Clifton Street","BT1 2JH",-5.934736815780194,54.605494666375385
"Blythefield Playground","Sandy Row","BT12 5HW",-5.9451057745339435,54.59028444578625
"Balfour Avenue Playground","Ormeau Road","BT7 2EW",-5.919744544961423,54.58675469058202
"New Lodge Playground","North Queen Street","BT15 3EN",-5.932094098906928,54.60785750636393
"Hammer Playground","Shankill Road","BT13 1GG",-5.945723869907631,54.60510710117938
"Lemberg Street Playground","Roden Street","BT12 5QB",-5.94952022239083,54.5906693485712
"North Queen Street Playground","N/A","BT15 1DJ",-5.928692094943983,54.60901225548667
"Ormeau Playground","Ravenhill Road","BT6 8EF",-5.911538129695181,54.58953332619729
"Mountforde Playground","Mountpottinger Road","BT5 4GJ",-5.90794849581435,54.59768911951506
"Dunville Playground","Dunville Street Falls Road","BT12 4NF",-5.952325489513884,54.59605117567677
"Eversleigh Playground","N/A","BT6 8BY",-5.9068728843462255,54.59155373525717
"Botanic Playground","Stranmillis Embankment","BT7 1PN",-5.928210981145903,54.58124417279415
"Dr Pitt Memorial Park Playground","Newtownards Road","BT4 1BU",-5.904523659218549,54.60019339304655
"Nubia Street Playground","Donegall Road","BT12",-5.953392828596179,54.58803993784902
"The Mount","N/A","BT15 1HS",-5.926834171032863,54.61235197706306
"Ormeau 2000 Playground","Park Avenue","BT7 2FW",-5.917323026101685,54.58012403749493
"Alloa Street Playground","Cliftonpark Avenue Crumlin Road","BT15 6EL",-5.9434652439140745,54.61257064809809
"Duncairn Playground","North Queen Street","BT15 2JL",-5.931156592310684,54.615047409622164
"Skippers' Playground","Island Road","BT4 1GA",-5.899041393487277,54.60201990940822
"Castleton Playground","N/A","BT15 3DG",-5.9269865372457105,54.615766734562115
"Clara Street Playground","N/A","BT5 5GB",-5.896428993064546,54.59080020963348
"Avoniel Playground","Avoniel Road","BT5 4SE",-5.895236441869926,54.5941219205525
"Olympia Playground","Boucher Road","BT12 6NT",-5.958296659998281,54.583447401110355
"Alexandra Lower Playground","Limestone Road","BT5 4LG",-5.931077856316208,54.61758028049508
"Ballymacarrett Playground","N/A","BT4 1FD",-5.892027400184495,54.599870864870404
"Ohio Street Playground","Cambrai Street","BT13 3HT",-5.96006836608381,54.61085692836609
"Woodvale Playground","Woodvale Road","BT13 3BN",-5.963743982991311,54.6080224892753
"Marrowbone Junior Playground","Oldpark Road","BT14 6QS",-5.952188515599874,54.616191158894885
"Grove Playground","North Queen Street","BT15 3DN",-5.926006119011716,54.62009581596661
"Alexandra Playground","Antrim Road","BT15 3BY",-5.935505063566199,54.620051163625426
"Queen Mary's Playground","Cavehill Road","BT15 5BG",-5.9404864425492585,54.61949676302136
"Ardoyne Community Centre Playground","40 Herbert Street","BT14 7FE",-5.958482723230388,54.6137432422726
"Cherryvale Playground","Ravenhill Road","BT6 0BT",-5.912451214132092,54.57444680783799
"Grampian Avenue Playground","N/A","BT4 3AB",-5.88585727315465,54.597750081078786
"Pat O'Hare Park","Whiterock Road","N/A",-5.9741673459363165,54.59105574763479
"Drumglass Playground","Cranmore Park Lisburn Road","BT9 6JF",-5.953890313614207,54.57390114049948
"Highfield Playground","West Circular Road","BT13 3RT",-5.975495381788765,54.60037909107476
"Westlands Playground","N/A","BT14 6NG",-5.945580335967581,54.62285941051263
"Orangefield Playground","Grand Parade","BT5 6AH",-5.88430384109882,54.58732686183393
"Black Mountain Playground","Springmartin Road","BT13 3TT",-5.978398673662375,54.59991650861765
"Northwood Playground","Shore Road","BT15 3NU",-5.926696481767191,54.624917281019286
"Ardoyne 'Pitch and Mitch'","Ardoyne Road","BT14 7HX",-5.966387125868662,54.6160263595174
"Springhill Playground","Springhill Avenue Whiterock Road","BT12 7QJ",-5.9798309845421205,54.596511594752876
"Victoria Playground","N/A","BT4 1LL",-5.883287520666122,54.607364537480734
"Falls Playground","Falls Road","BT12 6AN",-5.978003650401739,54.585820211784174
"Glencairn Playground","Glencairn Road","BT13 3PU",-5.978247603265479,54.613482023162184
"Moyard Playground","New Barnsley Park","BT12 7HJ",-5.986978772411746,54.59848620042026
"Michelle Baird Playground","Forthriver Drive Forthriver Road","BT13 3UL",-5.9796372945149345,54.61684877620242
"Ballysillan Playground","Ballysillan Road","BT14 7QP",-5.968791398964011,54.62447112628162
"Clarawood Playground","N/A","BT5 6GE",-5.867705664892908,54.58702200597007
"Alderman Tommy Patton Memorial Park Playground","Inverary Avenue Holywood Road","BT4 1RN",-5.869813508858056,54.61002145936675
"Northlink Playground","N/A","BT11 8HW",-5.9879231880271435,54.57836221595214
"Glenbank Playground","Ligoniel Road","BT14 8BY",-5.9799624251812915,54.62358505476787
"Tyndale Playground","Tyndale Drive","BT14 8HP",-5.96531650991788,54.63100848673428
"Loughside Playground","Shore Road","BT15 4JT",-5.922626507015446,54.63821409404869
"Belmont Playground","Cairnburn Road","BT4 2HR",-5.858108777378816,54.605687024072296
"Glassmullin Playground","Andersonstown Road","BT11 8JP",-5.996113248664719,54.5761597500904
"Ligoniel Playground","Mountain View Road","BT14 8PG",-5.982959949467988,54.62807170634792
"Taughmonagh Playground","Malone Road","BT9 6QF",-5.969324147521863,54.55801965336786
"Barnett's Playground","Milltown Road Malone Road","BT9 5PB",-5.955600264055806,54.55297943913396
"Cave Hill Adventurous Playground","Antrim Road","BT15 5GR",-5.939948960565788,54.644327547402945
"Geeragh Playground","1-6 Geeragh Place","BT10 0ER",-5.980862071564181,54.55782677447214
"Knocknagoney Playground","Knocknagoney Road","BT4 2PU",-5.8536447266447444,54.61744694049764
"Wedderburn Playground","Orpen Park","BT10 0BN",-5.984588164206453,54.557744154736696
"Finlay Playground","Whitewell Road","BT36 7EU",-5.922356054863104,54.64883153870853
"Horn Drive Playground","Lenadoon Avenue","BT11 9GU",-6.010668021099428,54.569837758358545
"Navarra Playground","Ballyroney Hill Whitewell Road","BT36",-5.9296978307966395,54.65071915481471
"Carnanmore Playground","Black's Road","BT11 9LY",-6.01088847703324,54.56403067332401
"Belfast Zoo Playground","Antrim Road","BT15 2BJ",-5.940847384259172,54.65578141156682
"Sir Thomas and Lady Dixon Park","Upper Malone Road","BT17 9LA",-5.983350011313021,54.53890857753648
